NORAD_CAT_ID,OBJECT_NAME,OBJECT_TYPE,EPOCH,MEAN_MOTION,ECCENTRICITY,INCLINATION,RA_OF_ASC_NODE,ARG_OF_PERICENTER,MEAN_ANOMALY,BSTAR,MEAN_MOTION_DOT,MEAN_MOTION_DDOT,TLE_LINE0,TLE_LINE1,TLE_LINE2,SEMIMAJOR_AXIS,PERIOD,APOGEE,PERIGEE,DECAYED
55281.0,STARLINK-5298,PAYLOAD,2023-05-31 04:31:09,14.98339549,0.0002586,70.0003,79.8362,268.158,91.9282,1.7709e-05,1.18e-06,0.0,0 STARLINK-5298,1 55281U 23010N   23151.18830625  .00000118  00000-0  17709-4 0  9990,2 55281  70.0003  79.8362 0002586 268.1580  91.9282 14.98339549 20962,6950.163,96.106,573.826,570.231,0.0
55281.0,STARLINK-5298,PAYLOAD,2023-05-31 22:08:39,14.98324163,0.0002677,69.9999,77.9843,269.1699,90.9154,4.2037e-05,4.09e-06,0.0,0 STARLINK-5298,1 55281U 23010N   23151.92267448  .00000409  00000-0  42037-4 0  9994,2 55281  69.9999  77.9843 0002677 269.1699  90.9154 14.98324163 21075,6950.211,96.107,573.937,570.215,0.0
55281.0,STARLINK-5298,PAYLOAD,2023-06-01 01:20:55,14.98325128,0.000249,70.0004,77.6478,263.5697,96.5179,6.8678e-05,7.26e-06,0.0,0 STARLINK-5298,1 55281U 23010N   23152.05619327  .00000726  00000-0  68678-4 0  9997,2 55281  70.0004  77.6478 0002490 263.5697  96.5179 14.98325128 20794,6950.208,96.107,573.804,570.342,0.0
55281.0,STARLINK-5298,PAYLOAD,2023-06-01 04:33:11,14.98323684,0.000264,69.9999,77.3106,264.9337,95.152,5.5952e-05,5.75e-06,0.0,0 STARLINK-5298,1 55281U 23010N   23152.18971473  .00000575  00000-0  55952-4 0  9997,2 55281  69.9999  77.3106 0002640 264.9337  95.1520 14.98323684 21119,6950.212,96.107,573.912,570.243,0.0
55281.0,STARLINK-5298,PAYLOAD,2023-06-02 02:59:04,14.98331805,0.000285,70.0002,74.9557,271.2982,88.7851,-4.836e-05,-6.7e-06,0.0,0 STARLINK-5298,1 55281U 23010N   23153.12435274 -.00000670  00000-0 -48360-4 0  9999,2 55281  70.0002  74.9557 0002850 271.2982  88.7851 14.98331805 20950,6950.187,96.107,574.033,570.072,0.0
55281.0,STARLINK-5298,PAYLOAD,2023-06-02 04:35:12,14.98332644,0.0002837,70.0001,74.7872,271.2915,88.7919,-5.5006e-05,-7.49e-06,0.0,0 STARLINK-5298,1 55281U 23010N   23153.19111226 -.00000749  00000-0 -55006-4 0  9996,2 55281  70.0001  74.7872 0002837 271.2915  88.7919 14.98332644 21260,6950.185,96.107,574.021,570.078,0.0
55281.0,STARLINK-5298,PAYLOAD,2023-06-02 22:12:41,14.9832611,0.0002834,70.0001,72.9357,270.7757,89.3077,-3.6198e-05,-5.25e-06,0.0,0 STARLINK-5298,1 55281U 23010N   23153.92547655 -.00000525  00000-0 -36198-4 0  9999,2 55281  70.0001  72.9357 0002834 270.7757  89.3077 14.98326110 21378,6950.205,96.107,574.04,570.1,0.0
55281.0,STARLINK-5298,PAYLOAD,2023-06-03 03:01:05,14.9832831,0.0002806,70.0,72.4297,270.1746,89.9092,-1.047e-05,-2.18e-06,0.0,0 STARLINK-5298,1 55281U 23010N   23154.12575470 -.00000218  00000-0 -10470-4 0  9992,2 55281  70.0000  72.4297 0002806 270.1746  89.9092 14.98328310 21104,6950.198,96.107,574.013,570.113,0.0
55281.0,STARLINK-5298,PAYLOAD,2023-06-03 04:37:13,14.98329102,0.0002797,70.0,72.2613,270.1268,89.9571,-7.5984e-07,-1.02e-06,0.0,0 STARLINK-5298,1 55281U 23010N   23154.19251403 -.00000102  00000-0 -75984-6 0  9991,2 55281  70.0000  72.2613 0002797 270.1268  89.9571 14.98329102 21418,6950.196,96.107,574.005,570.117,0.0
55281.0,STARLINK-5298,PAYLOAD,2023-06-03 20:38:33,14.98331244,0.0002818,70.0001,70.5775,271.653,88.4306,2.9346e-05,2.57e-06,0.0,0 STARLINK-5298,1 55281U 23010N   23154.86011208  .00000257  00000-0  29346-4 0  9990,2 55281  70.0001  70.5775 0002818 271.6530  88.4306 14.98331244 21512,6950.189,96.107,574.013,570.095,0.0
55281.0,STARLINK-5298,PAYLOAD,2023-06-04 01:26:57,14.98333834,0.0002802,70.0001,70.0727,271.3787,88.7051,5.6959e-05,5.87e-06,0.0,0 STARLINK-5298,1 55281U 23010N   23155.06038940  .00000587  00000-0  56959-4 0  9991,2 55281  70.0001  70.0727 0002802 271.3787  88.7051 14.98333834 21245,6950.181,96.107,573.993,570.099,0.0
55281.0,STARLINK-5298,PAYLOAD,2023-06-04 04:39:13,14.98333897,0.0002808,70.0002,69.7362,271.3011,88.7826,5.3459e-05,5.45e-06,0.0,0 STARLINK-5298,1 55281U 23010N   23155.19390924  .00000545  00000-0  53459-4 0  9994,2 55281  70.0002  69.7362 0002808 271.3011  88.7826 14.98333897 21566,6950.181,96.107,573.997,570.094,0.0
55281.0,STARLINK-5298,PAYLOAD,2023-06-04 19:04:26,14.98328374,0.0002719,70.0004,68.2221,267.8893,92.1954,9.7471e-06,2.3e-07,0.0,0 STARLINK-5298,1 55281U 23010N   23155.79475358  .00000023  00000-0  97471-5 0  9999,2 55281  70.0004  68.2221 0002719 267.8893  92.1954 14.98328374 21357,6950.198,96.107,573.953,570.173,0.0
55281.0,STARLINK-5298,PAYLOAD,2023-06-04 20:40:34,14.9832848,0.0002722,70.0004,68.0538,267.8804,92.2043,1.0288e-05,3e-07,0.0,0 STARLINK-5298,1 55281U 23010N   23155.86151350  .00000030  00000-0  10288-4 0  9998,2 55281  70.0004  68.0538 0002722 267.8804  92.2043 14.98328480 21664,6950.198,96.107,573.954,570.171,0.0
55281.0,STARLINK-5298,PAYLOAD,2023-06-05 11:05:47,14.98329805,0.0002703,70.0006,66.5387,269.6356,90.4493,-1.7633e-06,-1.14e-06,0.0,0 STARLINK-5298,1 55281U 23010N   23156.46235264 -.00000114  00000-0 -17633-5 0  9999,2 55281  70.0006  66.5387 0002703 269.6356  90.4493 14.98329805 21753,6950.193,96.107,573.937,570.18,0.0
55281.0,STARLINK-5298,PAYLOAD,2023-06-05 20:42:35,14.98330398,0.0002637,70.0008,65.5291,269.3128,90.7729,-4.2012e-05,-5.94e-06,0.0,0 STARLINK-5298,1 55281U 23010N   23156.86291327 -.00000594  00000-0 -42012-4 0  9995,2 55281  70.0008  65.5291 0002637 269.3128  90.7729 14.98330398 21819,6950.192,96.107,573.889,570.224,0.0
55281.0,STARLINK-5298,PAYLOAD,2023-06-05 23:54:51,14.98329768,0.0002649,70.0006,65.1924,269.3199,90.7657,-4.7231e-05,-6.56e-06,0.0,0 STARLINK-5298,1 55281U 23010N   23156.99643375 -.00000656  00000-0 -47231-4 0  9990,2 55281  70.0006  65.1924 0002649 269.3199  90.7657 14.98329768 21535,6950.194,96.107,573.9,570.218,0.0
55281.0,STARLINK-5298,PAYLOAD,2023-06-06 03:07:07,14.98331376,0.0002646,70.0006,64.8556,270.9747,89.1109,-2.7732e-05,-4.24e-06,0.0,0 STARLINK-5298,1 55281U 23010N   23157.12995214 -.00000424  00000-0 -27732-4 0  9995,2 55281  70.0006  64.8556 0002646 270.9747  89.1109 14.98331376 21853,6950.189,96.107,573.893,570.215,0.0
55281.0,STARLINK-5298,PAYLOAD,2023-06-06 19:08:28,14.98330179,0.0002693,70.0006,63.1725,272.1643,87.9207,-9.8326e-06,-2.1e-06,0.0,0 STARLINK-5298,1 55281U 23010N   23157.79755205 -.00000210  00000-0 -98326-5 0  9993,2 55281  70.0006  63.1725 0002693 272.1643  87.9207 14.98330179 21950,6950.192,96.107,573.929,570.186,0.0
55281.0,STARLINK-5298,PAYLOAD,2023-06-07 03:09:08,14.98331969,0.0002672,70.0007,62.3309,271.7799,88.3054,1.3047e-05,6.3e-07,0.0,0 STARLINK-5298,1 55281U 23010N   23158.13135008  .00000063  00000-0  13047-4 0  9995,2 55281  70.0007  62.3309 0002672 271.7799  88.3054 14.98331969 21700,6950.187,96.107,573.909,570.195,0.0
55281.0,STARLINK-5298,PAYLOAD,2023-06-07 20:46:38,14.98303091,0.0002787,70.0005,60.4779,266.9669,93.1171,0.00038126,4.456e-05,0.0,0 STARLINK-5298,1 55281U 23010N   23158.86571944  .00004456  00000-0  38126-3 0  9992,2 55281  70.0005  60.4779 0002787 266.9669  93.1171 14.98303091 22112,6950.276,96.109,574.078,570.204,0.0
55281.0,STARLINK-5298,PAYLOAD,2023-06-08 03:11:10,14.98326033,0.0002703,70.0005,59.8045,267.0144,93.0706,-1.9565e-05,-3.26e-06,0.0,0 STARLINK-5298,1 55281U 23010N   23159.13275502 -.00000326  00000-0 -19565-4 0  9995,2 55281  70.0005  59.8045 0002703 267.0144  93.0706 14.98326033 21852,6950.205,96.107,573.949,570.192,0.0
55281.0,STARLINK-5298,PAYLOAD,2023-06-08 22:24:46,14.98332357,0.0002842,70.0006,57.7868,266.6005,93.4829,-3.1152e-07,-9.7e-07,0.0,0 STARLINK-5298,1 55281U 23010N   23159.93387040 -.00000097  00000-0 -31152-6 0  9997,2 55281  70.0006  57.7868 0002842 266.6005  93.4829 14.98332357 21977,6950.186,96.107,574.026,570.075,0.0
55281.0,STARLINK-5298,PAYLOAD,2023-06-09 03:13:10,14.9833414,0.000285,70.0004,57.2801,267.7318,92.3514,1.9027e-05,1.34e-06,0.0,0 STARLINK-5298,1 55281U 23010N   23160.13414832  .00000134  00000-0  19027-4 0  9996,2 55281  70.0004  57.2801 0002850 267.7318  92.3514 14.98334140 22304,6950.18,96.107,574.026,570.064,0.0
55281.0,STARLINK-5298,PAYLOAD,2023-06-09 16:02:15,14.98329273,0.0002905,70.0002,55.9336,268.0685,92.0141,6.5457e-06,-1.5e-07,0.0,0 STARLINK-5298,1 55281U 23010N   23160.66823147 -.00000015  00000-0  65457-5 0  9995,2 55281  70.0002  55.9336 0002905 268.0685  92.0141 14.98329273 22384,6950.195,96.107,574.079,570.041,0.0
55281.0,STARLINK-5298,PAYLOAD,2023-06-10 03:15:11,14.9833008,0.0002911,70.0003,54.7549,268.3931,91.6894,1.2569e-05,5.7e-07,0.0,0 STARLINK-5298,1 55281U 23010N   23161.13555087  .00000057  00000-0  12569-4 0  9993,2 55281  70.0003  54.7549 0002911 268.3931  91.6894 14.98330080 22155,6950.193,96.107,574.081,570.034,0.0
55281.0,STARLINK-5298,PAYLOAD,2023-06-10 09:39:43,14.98329312,0.0002905,70.0004,54.0817,268.7642,91.3184,6.4246e-06,-1.6e-07,0.0,0 STARLINK-5298,1 55281U 23010N   23161.40259143 -.00000016  00000-0  64246-5 0  9993,2 55281  70.0004  54.0817 0002905 268.7642  91.3184 14.98329312 22495,6950.195,96.107,574.079,570.041,0.0
55281.0,STARLINK-5298,PAYLOAD,2023-06-10 16:04:16,14.98331863,0.0002875,70.0005,53.4087,272.4651,87.6179,-1.141e-05,-2.29e-06,0.0,0 STARLINK-5298,1 55281U 23010N   23161.66963077 -.00000229  00000-0 -11410-4 0  9990,2 55281  70.0005  53.4087 0002875 272.4651  87.6179 14.98331863 22537,6950.187,96.107,574.05,570.054,0.0
55281.0,STARLINK-5298,PAYLOAD,2023-06-11 09:41:44,14.98332976,0.0002894,70.0005,51.5569,271.9985,88.0843,3.7468e-06,-4.8e-07,0.0,0 STARLINK-5298,1 55281U 23010N   23162.40398809 -.00000048  00000-0  37468-5 0  9998,2 55281  70.0005  51.5569 0002894 271.9985  88.0843 14.98332976 22344,6950.184,96.107,574.06,570.037,0.0
55281.0,STARLINK-5298,PAYLOAD,2023-06-11 22:30:48,14.98331633,0.0002958,70.0003,50.2105,270.9923,89.0897,2.9606e-05,2.6e-06,0.0,0 STARLINK-5298,1 55281U 23010N   23162.93806711  .00000260  00000-0  29606-4 0  9991,2 55281  70.0003  50.2105 0002958 270.9923  89.0897 14.98331633 22727,6950.188,96.107,574.109,569.997,0.0
